STARLINK-36612          
1 67580U 26016V   26033.58335648 -.01511416  67887-3 -36135-2 0  9997
2 67580  97.2783  92.1866 0001419  84.7596  38.7775 15.96663506  2400
STARLINK-36632          
1 67581U 26016W   26033.58335648 -.01489398  66430-3 -34623-2 0  9994
2 67581  97.2781  92.1905 0001458  83.7658  48.0099 15.97176672  2401
STARLINK-36609          
1 67582U 26016X   26033.58335648 -.01482008  65940-3 -34133-2 0  9997
2 67582  97.2779  92.1915 0001465  83.2153  51.4229 15.97345332  2407
STARLINK-36577          
1 67583U 26016Y   26033.58335648 -.01491886  66437-3 -35210-2 0  9991
2 67583  97.2776  92.1880 0001486  82.6785  44.7404 15.96899009  2407
STARLINK-36419          
1 67584U 26016Z   26033.58335648 -.01474173  65431-3 -33595-2 0  9999
2 67584  97.2778  92.1929 0001373  81.5729  56.2123 15.97538239  2407
STARLINK-36560          
1 67585U 26016AA  26033.58335648 -.01464914  64860-3 -32892-2 0  9996
2 67585  97.2776  92.1946 0001439  82.4141  59.6782 15.97807173  2343
CZ-2C DEB               
1 67586U 26009C   26034.16491080  .00062368  00000+0  31543-2 0  9995
2 67586  97.2271 107.9425 0112323 156.4705 204.1723 15.11382009  2865
CZ-2C DEB               
1 67587U 26009D   26034.14186522  .00041459  00000+0  20246-2 0  9992
2 67587  97.6744 108.9498 0108804 161.8440 198.6725 15.12992586  2868
NAVSTAR 85 (USA 581)    
1 67588U 26017A   26028.76206649  .00000346  00000+0  32093-3 0  9990
2 67588  55.0007  99.1396 5940837 270.1415  26.1406  4.03376750    44
NEONSAT-1A              
1 67614U 26019A   26033.93502294  .00004829  00000+0  32144-3 0  9999
2 67614  97.4099 158.7681 0011834 296.4142  63.5871 15.07524485   589
ELECTRON R/B            
1 67615U 26019B   26033.97275239  .01700574  22006-5  14844-2 0  9993
2 67615  97.4419 159.2425 0235260 212.4740 146.1869 15.76133596   615
ELECTRON KICK STAGE R/B 
1 67616U 26019C   26032.79015153  .00270668  20967-4  15701-2 0  9991
2 67616  97.4061 157.8487 0205480 252.3044 105.5685 15.54465384   425
