CCSDS_OMM_VERS = 2.0
CREATION_DATE  = 
ORIGINATOR     = 

OBJECT_NAME    = STARLINK-36612
OBJECT_ID      = 2026-016V
CENTER_NAME    = EARTH
REF_FRAME      = TEME
TIME_SYSTEM    = UTC
MEAN_ELEMENT_THEORY = SGP/SGP4

EPOCH          = 2026-02-02T14:00:01.999872
MEAN_MOTION    = 15.96663506
ECCENTRICITY   = .00014199
INCLINATION    = 97.2783
RA_OF_ASC_NODE = 92.1866
ARG_OF_PERICENTER = 84.7596
MEAN_ANOMALY   = 38.7775

EPHEMERIS_TYPE = 0
CLASSIFICATION_TYPE = U
NORAD_CAT_ID   = 67580
ELEMENT_SET_NO = 999
REV_AT_EPOCH   = 240
BSTAR          = -.36135241E-2
MEAN_MOTION_DOT = -.1511416E-1
MEAN_MOTION_DDOT = .67887472E-3

CCSDS_OMM_VERS = 2.0
CREATION_DATE  = 
ORIGINATOR     = 

OBJECT_NAME    = STARLINK-36632
OBJECT_ID      = 2026-016W
CENTER_NAME    = EARTH
REF_FRAME      = TEME
TIME_SYSTEM    = UTC
MEAN_ELEMENT_THEORY = SGP/SGP4

EPOCH          = 2026-02-02T14:00:01.999872
MEAN_MOTION    = 15.97176672
ECCENTRICITY   = .00014586
INCLINATION    = 97.2781
RA_OF_ASC_NODE = 92.1905
ARG_OF_PERICENTER = 83.7658
MEAN_ANOMALY   = 48.0099

EPHEMERIS_TYPE = 0
CLASSIFICATION_TYPE = U
NORAD_CAT_ID   = 67581
ELEMENT_SET_NO = 999
REV_AT_EPOCH   = 240
BSTAR          = -.34622941E-2
MEAN_MOTION_DOT = -.1489398E-1
MEAN_MOTION_DDOT = .66429878E-3

CCSDS_OMM_VERS = 2.0
CREATION_DATE  = 
ORIGINATOR     = 

OBJECT_NAME    = STARLINK-36609
OBJECT_ID      = 2026-016X
CENTER_NAME    = EARTH
REF_FRAME      = TEME
TIME_SYSTEM    = UTC
MEAN_ELEMENT_THEORY = SGP/SGP4

EPOCH          = 2026-02-02T14:00:01.999872
MEAN_MOTION    = 15.97345332
ECCENTRICITY   = .00014653
INCLINATION    = 97.2779
RA_OF_ASC_NODE = 92.1915
ARG_OF_PERICENTER = 83.2153
MEAN_ANOMALY   = 51.4229

EPHEMERIS_TYPE = 0
CLASSIFICATION_TYPE = U
NORAD_CAT_ID   = 67582
ELEMENT_SET_NO = 999
REV_AT_EPOCH   = 240
BSTAR          = -.3413338E-2
MEAN_MOTION_DOT = -.1482008E-1
MEAN_MOTION_DDOT = .65939895E-3

CCSDS_OMM_VERS = 2.0
CREATION_DATE  = 
ORIGINATOR     = 

OBJECT_NAME    = STARLINK-36577
OBJECT_ID      = 2026-016Y
CENTER_NAME    = EARTH
REF_FRAME      = TEME
TIME_SYSTEM    = UTC
MEAN_ELEMENT_THEORY = SGP/SGP4

EPOCH          = 2026-02-02T14:00:01.999872
MEAN_MOTION    = 15.96899009
ECCENTRICITY   = .00014865
INCLINATION    = 97.2776
RA_OF_ASC_NODE = 92.1880
ARG_OF_PERICENTER = 82.6785
MEAN_ANOMALY   = 44.7404

EPHEMERIS_TYPE = 0
CLASSIFICATION_TYPE = U
NORAD_CAT_ID   = 67583
ELEMENT_SET_NO = 999
REV_AT_EPOCH   = 240
BSTAR          = -.35209658E-2
MEAN_MOTION_DOT = -.1491886E-1
MEAN_MOTION_DDOT = .66437371E-3

CCSDS_OMM_VERS = 2.0
CREATION_DATE  = 
ORIGINATOR     = 

OBJECT_NAME    = STARLINK-36419
OBJECT_ID      = 2026-016Z
CENTER_NAME    = EARTH
REF_FRAME      = TEME
TIME_SYSTEM    = UTC
MEAN_ELEMENT_THEORY = SGP/SGP4

EPOCH          = 2026-02-02T14:00:01.999872
MEAN_MOTION    = 15.97538239
ECCENTRICITY   = .00013739
INCLINATION    = 97.2778
RA_OF_ASC_NODE = 92.1929
ARG_OF_PERICENTER = 81.5729
MEAN_ANOMALY   = 56.2123

EPHEMERIS_TYPE = 0
CLASSIFICATION_TYPE = U
NORAD_CAT_ID   = 67584
ELEMENT_SET_NO = 999
REV_AT_EPOCH   = 240
BSTAR          = -.33594835E-2
MEAN_MOTION_DOT = -.1474173E-1
MEAN_MOTION_DDOT = .65431373E-3

CCSDS_OMM_VERS = 2.0
CREATION_DATE  = 
ORIGINATOR     = 

OBJECT_NAME    = STARLINK-36560
OBJECT_ID      = 2026-016AA
CENTER_NAME    = EARTH
REF_FRAME      = TEME
TIME_SYSTEM    = UTC
MEAN_ELEMENT_THEORY = SGP/SGP4

EPOCH          = 2026-02-02T14:00:01.999872
MEAN_MOTION    = 15.97807173
ECCENTRICITY   = .00014397
INCLINATION    = 97.2776
RA_OF_ASC_NODE = 92.1946
ARG_OF_PERICENTER = 82.4141
MEAN_ANOMALY   = 59.6782

EPHEMERIS_TYPE = 0
CLASSIFICATION_TYPE = U
NORAD_CAT_ID   = 67585
ELEMENT_SET_NO = 999
REV_AT_EPOCH   = 234
BSTAR          = -.32892103E-2
MEAN_MOTION_DOT = -.1464914E-1
MEAN_MOTION_DDOT = .64860441E-3

CCSDS_OMM_VERS = 2.0
CREATION_DATE  = 
ORIGINATOR     = 

OBJECT_NAME    = CZ-2C DEB
OBJECT_ID      = 2026-009C
CENTER_NAME    = EARTH
REF_FRAME      = TEME
TIME_SYSTEM    = UTC
MEAN_ELEMENT_THEORY = SGP/SGP4

EPOCH          = 2026-02-03T03:57:28.293120
MEAN_MOTION    = 15.11382009
ECCENTRICITY   = .0112323
INCLINATION    = 97.2271
RA_OF_ASC_NODE = 107.9425
ARG_OF_PERICENTER = 156.4705
MEAN_ANOMALY   = 204.1723

EPHEMERIS_TYPE = 0
CLASSIFICATION_TYPE = U
NORAD_CAT_ID   = 67586
ELEMENT_SET_NO = 999
REV_AT_EPOCH   = 286
BSTAR          = .31543E-2
MEAN_MOTION_DOT = .62368E-3
MEAN_MOTION_DDOT = 0

CCSDS_OMM_VERS = 2.0
CREATION_DATE  = 
ORIGINATOR     = 

OBJECT_NAME    = CZ-2C DEB
OBJECT_ID      = 2026-009D
CENTER_NAME    = EARTH
REF_FRAME      = TEME
TIME_SYSTEM    = UTC
MEAN_ELEMENT_THEORY = SGP/SGP4

EPOCH          = 2026-02-03T03:24:17.155008
MEAN_MOTION    = 15.12992586
ECCENTRICITY   = .0108804
INCLINATION    = 97.6744
RA_OF_ASC_NODE = 108.9498
ARG_OF_PERICENTER = 161.8440
MEAN_ANOMALY   = 198.6725

EPHEMERIS_TYPE = 0
CLASSIFICATION_TYPE = U
NORAD_CAT_ID   = 67587
ELEMENT_SET_NO = 999
REV_AT_EPOCH   = 286
BSTAR          = .20246E-2
MEAN_MOTION_DOT = .41459E-3
MEAN_MOTION_DDOT = 0

CCSDS_OMM_VERS = 2.0
CREATION_DATE  = 
ORIGINATOR     = 

OBJECT_NAME    = NAVSTAR 85 (USA 581)
OBJECT_ID      = 2026-017A
CENTER_NAME    = EARTH
REF_FRAME      = TEME
TIME_SYSTEM    = UTC
MEAN_ELEMENT_THEORY = SGP/SGP4

EPOCH          = 2026-01-28T18:17:22.544736
MEAN_MOTION    = 4.03376750
ECCENTRICITY   = .59408377
INCLINATION    = 55.0007
RA_OF_ASC_NODE = 99.1396
ARG_OF_PERICENTER = 270.1415
MEAN_ANOMALY   = 26.1406

EPHEMERIS_TYPE = 0
CLASSIFICATION_TYPE = U
NORAD_CAT_ID   = 67588
ELEMENT_SET_NO = 999
REV_AT_EPOCH   = 4
BSTAR          = .32093292E-3
MEAN_MOTION_DOT = .346E-5
MEAN_MOTION_DDOT = 0

CCSDS_OMM_VERS = 2.0
CREATION_DATE  = 
ORIGINATOR     = 

OBJECT_NAME    = NEONSAT-1A
OBJECT_ID      = 2026-019A
CENTER_NAME    = EARTH
REF_FRAME      = TEME
TIME_SYSTEM    = UTC
MEAN_ELEMENT_THEORY = SGP/SGP4

EPOCH          = 2026-02-02T22:26:25.982016
MEAN_MOTION    = 15.07524485
ECCENTRICITY   = .0011834
INCLINATION    = 97.4099
RA_OF_ASC_NODE = 158.7681
ARG_OF_PERICENTER = 296.4142
MEAN_ANOMALY   = 63.5871

EPHEMERIS_TYPE = 0
CLASSIFICATION_TYPE = U
NORAD_CAT_ID   = 67614
ELEMENT_SET_NO = 999
REV_AT_EPOCH   = 58
BSTAR          = .32144E-3
MEAN_MOTION_DOT = .4829E-4
MEAN_MOTION_DDOT = 0

CCSDS_OMM_VERS = 2.0
CREATION_DATE  = 
ORIGINATOR     = 

OBJECT_NAME    = ELECTRON R/B
OBJECT_ID      = 2026-019B
CENTER_NAME    = EARTH
REF_FRAME      = TEME
TIME_SYSTEM    = UTC
MEAN_ELEMENT_THEORY = SGP/SGP4

EPOCH          = 2026-02-02T23:20:45.806496
MEAN_MOTION    = 15.76133596
ECCENTRICITY   = .023526
INCLINATION    = 97.4419
RA_OF_ASC_NODE = 159.2425
ARG_OF_PERICENTER = 212.4740
MEAN_ANOMALY   = 146.1869

EPHEMERIS_TYPE = 0
CLASSIFICATION_TYPE = U
NORAD_CAT_ID   = 67615
ELEMENT_SET_NO = 999
REV_AT_EPOCH   = 61
BSTAR          = .14844E-2
MEAN_MOTION_DOT = .1700574E-1
MEAN_MOTION_DDOT = .22006E-5

CCSDS_OMM_VERS = 2.0
CREATION_DATE  = 
ORIGINATOR     = 

OBJECT_NAME    = ELECTRON KICK STAGE R/B
OBJECT_ID      = 2026-019C
CENTER_NAME    = EARTH
REF_FRAME      = TEME
TIME_SYSTEM    = UTC
MEAN_ELEMENT_THEORY = SGP/SGP4

EPOCH          = 2026-02-01T18:57:49.092192
MEAN_MOTION    = 15.54465384
ECCENTRICITY   = .02054802
INCLINATION    = 97.4061
RA_OF_ASC_NODE = 157.8487
ARG_OF_PERICENTER = 252.3044
MEAN_ANOMALY   = 105.5685

EPHEMERIS_TYPE = 0
CLASSIFICATION_TYPE = U
NORAD_CAT_ID   = 67616
ELEMENT_SET_NO = 999
REV_AT_EPOCH   = 42
BSTAR          = .1570084E-2
MEAN_MOTION_DOT = .270668E-2
MEAN_MOTION_DDOT = .20966934E-4

